From:	Horizons Ephemeris System <horizons@ssd.jpl.nasa.gov>
Sent:	Friday, December 4, 2020 11:36 AM
Subject:	[Horizons] MAJOR BODY #C(usr={180.,-75.,.600^G}@301)_T(301) (1/1)

 Automated mail xmit by MAIL_REQUEST, PID= 7351 Fri Dec  4 09:36:03 2020
++++++++++++++++++++++++++++++++ (part 1 of 1)  +++++++++++++++++++++++++++++++
*******************************************************************************
 Revised: July 31, 2013             Moon / (Earth)                          301
 
 GEOPHYSICAL DATA (updated 2018-Aug-15):
  Vol. mean radius, km  = 1737.53+-0.03    Mass, x10^22 kg       =    7.349
  Radius (gravity), km  = 1738.0           Surface emissivity    =    0.92
  Radius (IAU), km      = 1737.4           GM, km^3/s^2          = 4902.800066
  Density, g/cm^3       =    3.3437        GM 1-sigma, km^3/s^2  =  +-0.0001  
  V(1,0)                =   +0.21          Surface accel., m/s^2 =    1.62
  Earth/Moon mass ratio = 81.3005690769    Farside crust. thick. = ~80 - 90 km
  Mean crustal density  = 2.97+-.07 g/cm^3 Nearside crust. thick.= 58+-8 km 
  Heat flow, Apollo 15  = 3.1+-.6 mW/m^2   Mean angular diameter = 31'05.2"
  Heat flow, Apollo 17  = 2.2+-.5 mW/m^2   Sid. rot. rate, rad/s = 0.0000026617
  Geometric Albedo      = 0.12             Mean solar day        = 29.5306 d
  Obliquity to orbit    = 6.67 deg         Orbit period          = 27.321582 d
  Semi-major axis, a    = 384400 km        Eccentricity          = 0.05490
  Mean motion, rad/s    = 2.6616995x10^-6  Inclination           = 5.145 deg
  Apsidal period        = 3231.50 d        Nodal period          = 6798.38 d
                                 Perihelion  Aphelion    Mean
  Solar Constant (W/m^2)         1414+-7     1323+-7     1368+-7
  Maximum Planetary IR (W/m^2)   1314        1226        1268
  Minimum Planetary IR (W/m^2)      5.2         5.2         5.2
********************************************************************************
 
 
*******************************************************************************
Ephemeris / MAIL_REQUEST Fri Dec  4 09:36:02 2020 Pasadena, USA  / Horizons
*******************************************************************************
Target body name: Moon (301)                      {source: DE431mx}
Center body name: Moon (301)                      {source: DE431mx}
Center-site name: (user defined site below)
*******************************************************************************
Start time      : A.D. 2020-Jan-01 00:00:00.0000 TDB
Stop  time      : A.D. 2039-Jan-01 00:00:00.0000 TDB
Step-size       : 10000 steps
*******************************************************************************
Center geodetic : 180.000000,-75.000000,0.6000000 {E-lon(deg),Lat(deg),Alt(km)}
Center cylindric: 180.000000,449.827500,-1678.779 {E-lon(deg),Dxy(km),Dz(km)}
Center pole/equ : IAU_MOON                        {East-longitude positive}
Center radii    : 1737.4 x 1737.4 x 1737.4 km     {Equator, meridian, pole}    
Output units    : KM-S
Output type     : GEOMETRIC cartesian states
Output format   : 3 (position, velocity, LT, range, range-rate)
Reference frame : Ecliptic of J2000.0
*******************************************************************************
JDTDB
   X     Y     Z
   VX    VY    VZ
   LT    RG    RR
*******************************************************************************
$$SOE
2460898.188000001 = A.D. 2025-Aug-10 16:30:43.2001 TDB 
  -4.133505227648004E+02  2.037711700737485E+02  1.675787174905228E+03
  -4.230186602751192E-04 -1.121907838299173E-03  3.207894735450913E-05
   5.797343974543885E-03  1.738000000000000E+03  6.787180458367252E-20
2460898.882000001 = A.D. 2025-Aug-11 09:10:04.8001 TDB 
  -4.332490131154790E+02  1.347652743100323E+02  1.677729898843854E+03
  -2.392836411753656E-04 -1.174872989765134E-03  3.258133468856279E-05
   5.797343974543886E-03  1.738000000000001E+03 -2.195852501236464E-19
2460899.576000001 = A.D. 2025-Aug-12 01:49:26.4001 TDB 
  -4.419250063400757E+02  6.347402137627807E+01  1.679677748075996E+03
  -4.949094519386098E-05 -1.197975417348954E-03  3.224965684193814E-05
   5.797343974543886E-03  1.738000000000001E+03  2.714872183346900E-19
2460900.270000001 = A.D. 2025-Aug-12 18:28:48.0001 TDB 
  -4.391594371509426E+02 -8.290896798451513E+00  1.681580878159462E+03
   1.415360421553819E-04 -1.190640466348970E-03  3.109301018943436E-05
   5.797343974543885E-03  1.738000000000000E+03  1.996229546578604E-20
2460900.964000001 = A.D. 2025-Aug-13 11:08:09.6001 TDB 
  -4.250239037725860E+02 -7.870648524636943E+01  1.683390617296555E+03
   3.289462727695857E-04 -1.153066369309994E-03  2.914132186299784E-05
   5.797343974543886E-03  1.738000000000000E+03  6.787180458367252E-20
2460901.658000001 = A.D. 2025-Aug-14 03:47:31.2001 TDB 
  -3.998786353199407E+02 -1.459846993200052E+02  1.685060694627678E+03
   5.079839517471617E-04 -1.086217981684836E-03  2.644458094531007E-05
   5.797343974543885E-03  1.738000000000001E+03  6.787180458367251E-20
2460902.352000001 = A.D. 2025-Aug-14 20:26:52.8001 TDB 
  -3.643631568700674E+02 -2.084177411043521E+02  1.686548408765263E+03
   6.741086791738353E-04 -9.918012159930048E-04  2.307161606109254E-05
   5.797343974543886E-03  1.738000000000001E+03  1.437285273536594E-19
2460903.046000001 = A.D. 2025-Aug-15 13:06:14.4001 TDB 
  -3.193799087214818E+02 -2.644212621006203E+02  1.687815709742677E+03
   8.231098348246780E-04 -8.722189369033511E-04  1.910843204257863E-05
   5.797343974543886E-03  1.738000000000000E+03  2.315626274031180E-19
2460903.740000001 = A.D. 2025-Aug-16 05:45:36.0001 TDB 
  -2.660712501797665E+02 -3.125743945394919E+02  1.688830168402391E+03
   9.512124013922354E-04 -7.305095218671102E-04  1.465612219930844E-05
   5.797343974543886E-03  1.738000000000001E+03 -9.182655914261576E-20
2460904.434000001 = A.D. 2025-Aug-16 22:24:57.6001 TDB 
  -2.057904394589749E+02 -3.516556181928122E+02  1.689565808490665E+03
   1.055171661170021E-03 -5.702696934766349E-04  9.828382047762866E-06
   5.797343974543885E-03  1.738000000000001E+03  9.981147732893017E-21
2460905.128000001 = A.D. 2025-Aug-17 15:04:19.2001 TDB 
  -1.400673266211015E+02 -3.806735767290523E+02  1.690003778692086E+03
   1.132354492004943E-03 -3.955635846639396E-04  4.748665053844734E-06
   5.797343974543886E-03  1.738000000000001E+03  7.186426367682971E-20
2460905.822000001 = A.D. 2025-Aug-18 07:43:40.8001 TDB 
  -7.056962300787796E+01 -3.988920846423371E+02  1.690132844813750E+03
   1.180805322414288E-03 -2.108203019775910E-04 -4.529604253567182E-07
   5.797343974543886E-03  1.738000000000001E+03  9.357325999587203E-22
2460906.516000001 = A.D. 2025-Aug-19 00:23:02.4001 TDB 
   9.392839521846836E-01 -4.058487093954728E+02  1.689949686478177E+03
   1.199295174959698E-03 -2.072250302667342E-05 -5.643173815704310E-06
   5.797343974543886E-03  1.738000000000000E+03 -9.981147732893019E-22
2460907.210000001 = A.D. 2025-Aug-19 17:02:24.0001 TDB 
   7.264491927655463E+01 -4.013664704415994E+02  1.689458987992475E+03
   1.187352624181447E-03  1.699112999072043E-04 -1.068888734968705E-05
   5.797343974543886E-03  1.738000000000000E+03  1.397360682605022E-20
2460907.904000001 = A.D. 2025-Aug-20 09:41:45.6001 TDB 
   1.427276030954669E+02 -3.855583638801901E+02  1.688673319312133E+03
   1.145275914043449E-03  3.562478581654265E-04 -1.546074333367360E-05
   5.797343974543886E-03  1.738000000000001E+03  1.996229546578603E-21
2460908.598000001 = A.D. 2025-Aug-21 02:21:07.2001 TDB 
   2.094084859246815E+02 -3.588245952801778E+02  1.687612809812947E+03
   1.074125913868706E-03  5.335607922224447E-04 -1.983650858447276E-05
   5.797343974543886E-03  1.738000000000001E+03  0.000000000000000E+00
2460909.292000001 = A.D. 2025-Aug-21 19:00:28.8001 TDB 
   2.709945890294899E+02 -3.218425801936941E+02  1.686304624405391E+03
   9.757000351529702E-04  6.973497255428361E-04 -2.370425514925108E-05
   5.797343974543886E-03  1.738000000000001E+03 -8.783410004945855E-20
2460909.986000001 = A.D. 2025-Aug-22 11:39:50.4001 TDB 
   3.259217230901330E+02 -2.755499485221818E+02  1.684782257826626E+03
   8.524876781160342E-04  8.434540242065919E-04 -2.696522936580353E-05
   5.797343974543884E-03  1.738000000000000E+03 -1.557059046331311E-19
2460910.680000001 = A.D. 2025-Aug-23 04:19:12.0001 TDB 
   3.727942057960444E+02 -2.211209614908248E+02  1.683084668254771E+03
   7.076082193121616E-04  9.681583185949693E-04 -2.953633099261638E-05
   5.797343974543885E-03  1.738000000000001E+03 -1.517134455399739E-19
2460911.374000001 = A.D. 2025-Aug-23 20:58:33.6001 TDB 
   4.104203726161363E+02 -1.599369147332939E+02  1.681255275396104E+03
   5.447329819499369E-04  1.068287146772147E-03 -3.135214734823827E-05
   5.797343974543885E-03  1.738000000000000E+03 -7.186426367682974E-20
2460912.068000001 = A.D. 2025-Aug-24 13:37:55.2001 TDB 
   4.378429738287421E+02 -9.355125397001996E+01  1.679340850795169E+03
   3.679930393314065E-04  1.141286288188098E-03 -3.236651050596257E-05
   5.797343974543884E-03  1.738000000000000E+03  6.387934549051532E-20
2460912.762000001 = A.D. 2025-Aug-25 06:17:16.8001 TDB 
   4.543636733261668E+02 -2.365026705133278E+01  1.677390329419469E+03
   1.818750783766834E-04  1.185288650569164E-03 -3.255356527406350E-05
   5.797343974543885E-03  1.738000000000001E+03  9.981147732893017E-20
2460913.456000001 = A.D. 2025-Aug-25 22:56:38.4001 TDB 
   4.595610084640683E+02  4.798966611170135E+01  1.675453571856283E+03
  -8.892117046280454E-06  1.199162929866753E-03 -3.190834961868571E-05
   5.797343974543886E-03  1.738000000000000E+03 -1.157813137015590E-19
2460914.150000001 = A.D. 2025-Aug-26 15:36:00.0001 TDB 
   4.533013323230416E+02  1.195471896358829E+02  1.673580106109152E+03
  -1.994577264458971E-04  1.182543677731213E-03 -3.044689642783946E-05
   5.797343974543886E-03  1.738000000000000E+03 -5.190196821104370E-20
